     2              NAVIGATION DATA                         RINEX VERSION / TYPE
CCRINEXN V1.6.0 UX  CDDIS               13-SEP-16 15:33     PGM / RUN BY / DATE 
IGS BROADCAST EPHEMERIS FILE                                COMMENT             
    0.1211D-07  0.1490D-07 -0.5960D-07 -0.1192D-06          ION ALPHA           
    0.9626D+05  0.8192D+05 -0.1966D+06 -0.3932D+06          ION BETA            
    0.000000000000D+00 0.266453525910D-14   233472     1914 DELTA-UTC: A0,A1,T,W
    17                                                      LEAP SECONDS        
                                                            END OF HEADER       
26 16  9 12 14  0  0.0-0.468015205115D-03-0.738964445190D-11 0.000000000000D+00
    0.450000000000D+02 0.962812500000D+02 0.455411826873D-08-0.171579551055D+01
    0.475160777569D-05 0.965572311543D-03 0.731460750103D-05 0.515358007622D+04
    0.136800000000D+06 0.000000000000D+00 0.109559251583D-01-0.670552253723D-07
    0.960486959269D+00 0.239125000000D+03-0.622469653160D-01-0.819998441941D-08
    0.335728270144D-09 0.100000000000D+01 0.191400000000D+04 0.000000000000D+00
    0.200000000000D+01 0.000000000000D+00 0.698491930962D-08 0.450000000000D+02
    0.129600000000D+06 0.400000000000D+01 0.000000000000D+00 0.000000000000D+00
27 16  9 12 14  0  0.0 0.138336326927D-03 0.477484718431D-11 0.000000000000D+00
    0.700000000000D+01-0.316250000000D+02 0.464233622908D-08 0.271986124870D+01
   -0.161677598953D-05 0.380063522607D-02 0.274181365967D-05 0.515364907074D+04
    0.136800000000D+06-0.502914190292D-07 0.106229266164D+01 0.204890966415D-07
    0.972185406053D+00 0.333437500000D+03 0.349055668164D+00-0.827927343640D-08
   -0.214294640518D-10 0.100000000000D+01 0.191400000000D+04 0.000000000000D+00
    0.200000000000D+01 0.000000000000D+00 0.186264514923D-08 0.700000000000D+01
    0.129600000000D+06 0.400000000000D+01 0.000000000000D+00 0.000000000000D+00
28 16  9 12 14  0  0.0 0.551491510123D-03 0.284217094304D-11 0.000000000000D+00
    0.810000000000D+02 0.812187500000D+02 0.383301680339D-08-0.270930437102D+01
    0.409036874771D-05 0.198443202535D-01 0.627897679806D-05 0.515363508225D+04
    0.136800000000D+06 0.279396772385D-06 0.976089151745D-01 0.173225998878D-06
    0.989667132271D+00 0.267843750000D+03-0.161153459568D+01-0.754638576583D-08
    0.398945189097D-09 0.100000000000D+01 0.191400000000D+04 0.000000000000D+00
    0.280000000000D+01 0.000000000000D+00-0.107102096081D-07 0.810000000000D+02
    0.129600000000D+06 0.400000000000D+01 0.000000000000D+00 0.000000000000D+00
29 16  9 12 14  0  0.0 0.651146750897D-03-0.113686837722D-11 0.000000000000D+00
    0.830000000000D+02-0.480000000000D+02 0.456769026263D-08-0.158206553293D+01
   -0.237114727497D-05 0.559810781851D-03 0.341609120369D-05 0.515375225449D+04
    0.136800000000D+06 0.819563865662D-07 0.112267298006D+01 0.353902578354D-07
    0.978228890337D+00 0.322781250000D+03 0.128238417210D+00-0.836213403073D-08
   -0.703600736366D-10 0.100000000000D+01 0.191400000000D+04 0.000000000000D+00
    0.200000000000D+01 0.000000000000D+00-0.102445483208D-07 0.830000000000D+02
    0.129600000000D+06 0.400000000000D+01 0.000000000000D+00 0.000000000000D+00
30 16  9 12 14  0  0.0 0.149989034980D-03 0.159161572810D-11 0.000000000000D+00
    0.370000000000D+02 0.179062500000D+02 0.451733102211D-08-0.287715741316D-01
    0.101886689663D-05 0.239779218100D-02 0.956282019615D-05 0.515377663422D+04
    0.136800000000D+06 0.502914190292D-07-0.961456376563D+00 0.130385160446D-07
    0.950851215273D+00 0.189406250000D+03-0.313975661094D+01-0.808176520939D-08
   -0.191079387795D-09 0.100000000000D+01 0.191400000000D+04 0.000000000000D+00
    0.200000000000D+01 0.000000000000D+00 0.372529029846D-08 0.370000000000D+02
    0.129600000000D+06 0.400000000000D+01 0.000000000000D+00 0.000000000000D+00
31 16  9 12 14  0  0.0 0.248377211392D-03-0.216004991671D-11 0.000000000000D+00
    0.850000000000D+02 0.193125000000D+02 0.413445793105D-08-0.242996314961D+00
    0.990927219391D-06 0.831892946735D-02 0.105015933514D-04 0.515355244827D+04
    0.136800000000D+06 0.800937414169D-07-0.994233711516D+00-0.143423676491D-06
    0.969853374195D+00 0.176812500000D+03-0.382556893019D+00-0.794390232399D-08
   -0.269296931584D-09 0.100000000000D+01 0.191400000000D+04 0.000000000000D+00
    0.200000000000D+01 0.000000000000D+00-0.135041773319D-07 0.850000000000D+02
    0.132330000000D+06 0.400000000000D+01 0.000000000000D+00 0.000000000000D+00
32 16  9 12 14  0  0.0-0.112688634545D-03-0.140971678775D-10 0.000000000000D+00
    0.870000000000D+02 0.253125000000D+01 0.473662587091D-08 0.312039521639D+01
    0.204890966415D-06 0.645292806439D-03 0.579282641411D-05 0.515363589478D+04
    0.136800000000D+06 0.316649675369D-07-0.208098313625D+01 0.409781932831D-07
    0.958909506407D+00 0.265750000000D+03-0.232068111661D+01-0.816069706865D-08
   -0.104647216119D-09 0.100000000000D+01 0.191400000000D+04 0.000000000000D+00
    0.200000000000D+01 0.000000000000D+00 0.931322574616D-09 0.870000000000D+02
    0.129600000000D+06 0.400000000000D+01 0.000000000000D+00 0.000000000000D+00
 4 16  9 12 15 59 44.0-0.260739587247D-03-0.227373675443D-12 0.000000000000D+00
    0.210000000000D+02 0.900937500000D+02 0.525664756168D-08-0.138344912299D+01
    0.476278364658D-05 0.843900290783D-02 0.672042369842D-05 0.515367942238D+04
    0.143984000000D+06 0.214204192162D-06 0.438636368337D-01 0.111758708954D-07
    0.983362000700D+00 0.258687500000D+03 0.898169119960D+00-0.794175925023D-08
    0.356086271580D-09 0.100000000000D+01 0.191400000000D+04 0.000000000000D+00
    0.200000000000D+01 0.100000000000D+01-0.195577740669D-07 0.210000000000D+02
    0.140010000000D+06 0.000000000000D+00 0.000000000000D+00 0.000000000000D+00
 5 16  9 12 15 59 44.0-0.915694981813D-04 0.261479726760D-11 0.000000000000D+00
    0.360000000000D+02 0.205625000000D+02 0.486448836767D-08-0.170825684645D+01
    0.105798244476D-05 0.473480438814D-02 0.911764800549D-05 0.515359519386D+04
    0.143984000000D+06 0.130385160446D-07-0.313465319928D+01-0.409781932831D-07
    0.946901504694D+00 0.197125000000D+03 0.503119487323D+00-0.811712386195D-08
    0.328227944824D-09 0.100000000000D+01 0.191400000000D+04 0.000000000000D+00
    0.200000000000D+01 0.000000000000D+00-0.107102096081D-07 0.360000000000D+02
    0.136800000000D+06 0.000000000000D+00 0.000000000000D+00 0.000000000000D+00
10 16  9 12 15 59 44.0-0.966261141002D-04-0.477484718431D-11 0.000000000000D+00
    0.700000000000D+01 0.158750000000D+02 0.459983445871D-08-0.515901962256D+00
    0.607222318649D-06 0.172514223959D-02 0.951811671257D-05 0.515367885399D+04
    0.143984000000D+06 0.484287738800D-07-0.312521765269D+01 0.745058059692D-07
    0.960084649482D+00 0.198187500000D+03-0.284133120771D+01-0.802247702551D-08
    0.240367155114D-09 0.100000000000D+01 0.191400000000D+04 0.000000000000D+00
    0.200000000000D+01 0.000000000000D+00 0.232830643654D-08 0.700000000000D+01
    0.136800000000D+06 0.400000000000D+01 0.000000000000D+00 0.000000000000D+00
17 16  9 12 15 59 44.0-0.202533788979D-03 0.454747350886D-12 0.000000000000D+00
    0.800000000000D+01-0.405000000000D+02 0.447590072494D-08-0.252007264346D+01
   -0.208057463169D-05 0.111569061410D-01 0.279769301414D-05 0.515374317741D+04
    0.143984000000D+06 0.214204192162D-06 0.111277444332D+01 0.186264514923D-08
    0.977222281276D+00 0.331500000000D+03-0.192463450969D+01-0.808426531353D-08
    0.900037490174D-10 0.100000000000D+01 0.191400000000D+04 0.000000000000D+00
    0.200000000000D+01 0.000000000000D+00-0.107102096081D-07 0.800000000000D+01
    0.136800000000D+06 0.400000000000D+01 0.000000000000D+00 0.000000000000D+00
18 16  9 12 15 59 44.0 0.556973274797D-03 0.375166564481D-11 0.000000000000D+00
    0.800000000000D+01 0.253437500000D+02 0.552380141627D-08-0.954197434108D+00
    0.140257179737D-05 0.172540685162D-01 0.899098813534D-05 0.515371444893D+04
    0.143984000000D+06-0.135973095894D-06 0.312510329931D+01 0.379979610443D-06
    0.925584868931D+00 0.190968750000D+03-0.186084019544D+01-0.871143424064D-08
    0.248938952785D-09 0.100000000000D+01 0.191400000000D+04 0.000000000000D+00
    0.200000000000D+01 0.000000000000D+00-0.111758708954D-07 0.800000000000D+01
    0.143700000000D+06 0.000000000000D+00 0.000000000000D+00 0.000000000000D+00
23 16  9 12 15 59 44.0-0.189645681530D-03-0.136424205266D-11 0.000000000000D+00
    0.200000000000D+01-0.406250000000D+00 0.516057210140D-08 0.248421888541D+01
   -0.271946191788D-06 0.111440310720D-01 0.562146306038D-05 0.515360974312D+04
    0.143984000000D+06-0.100582838059D-06-0.207874653785D+01-0.160187482834D-06
    0.945255873998D+00 0.263968750000D+03-0.253119557681D+01-0.827855912093D-08
   -0.207151485834D-09 0.100000000000D+01 0.191400000000D+04 0.000000000000D+00
    0.200000000000D+01 0.000000000000D+00-0.200234353542D-07 0.200000000000D+01
    0.143070000000D+06 0.400000000000D+01 0.000000000000D+00 0.000000000000D+00
25 16  9 12 15 59 44.0-0.244411174208D-03-0.693489710102D-11 0.000000000000D+00
    0.280000000000D+02 0.810625000000D+02 0.416910239664D-08-0.167804954550D+00
    0.433251261711D-05 0.559224269819D-02 0.708363950253D-05 0.515370328140D+04
    0.143984000000D+06 0.838190317154D-07 0.217649323796D-01 0.102445483208D-06
    0.978581323394D+00 0.257687500000D+03 0.787711150988D+00-0.805247868385D-08
    0.321084797639D-09 0.100000000000D+01 0.191400000000D+04 0.000000000000D+00
    0.200000000000D+01 0.000000000000D+00 0.558793544769D-08 0.280000000000D+02
    0.136800000000D+06 0.000000000000D+00 0.000000000000D+00 0.000000000000D+00
